NORAD_CAT_ID,OBJECT_NAME,OBJECT_TYPE,EPOCH,MEAN_MOTION,ECCENTRICITY,INCLINATION,RA_OF_ASC_NODE,ARG_OF_PERICENTER,MEAN_ANOMALY,BSTAR,MEAN_MOTION_DOT,MEAN_MOTION_DDOT,TLE_LINE0,TLE_LINE1,TLE_LINE2,SEMIMAJOR_AXIS,PERIOD,APOGEE,PERIGEE,DECAYED
51999.0,STARLINK-3667,PAYLOAD,2024-07-29 02:45:03,15.08828965,0.0001572,53.2179,141.3305,96.2837,263.8334,3.5295e-05,2.74e-06,0.0,0 STARLINK-3667,1 51999U 22025AV  24211.11461806  .00000274  00000-0  35295-4 0  9992,2 51999  53.2179 141.3305 0001572  96.2837 263.8334 15.08828965133579,6917.914,95.438,540.867,538.692,0.0
51999.0,STARLINK-3667,PAYLOAD,2024-07-29 12:17:20,15.08845572,0.0001239,53.2166,139.543,81.753,278.3602,0.00013239,1.82e-05,0.0,0 STARLINK-3667,1 51999U 22025AV  24211.51204533  .00001820  00000-0  13239-3 0  9999,2 51999  53.2166 139.5430 0001239  81.7530 278.3602 15.08845572133631,6917.863,95.437,540.585,538.871,0.0
51999.0,STARLINK-3667,PAYLOAD,2024-07-29 18:38:54,15.08829806,0.0002001,53.2168,138.3537,78.916,281.2057,0.00014143,1.963e-05,0.0,0 STARLINK-3667,1 51999U 22025AV  24211.77701702  .00001963  00000-0  14143-3 0  9990,2 51999  53.2168 138.3537 0002001  78.9160 281.2057 15.08829806133676,6917.912,95.438,541.161,538.392,0.0
51999.0,STARLINK-3667,PAYLOAD,2024-07-30 12:08:07,15.08852384,0.0001545,53.2175,135.082,74.4938,285.6225,0.00022105,3.233e-05,0.0,0 STARLINK-3667,1 51999U 22025AV  24212.50564375  .00003233  00000-0  22105-3 0  9994,2 51999  53.2175 135.0820 0001545  74.4938 285.6225 15.08852384133783,6917.843,95.437,540.776,538.639,0.0
51999.0,STARLINK-3667,PAYLOAD,2024-07-30 23:15:50,15.08841307,0.0001628,53.2168,133.0029,84.6061,275.5117,0.00017005,2.419e-05,0.0,0 STARLINK-3667,1 51999U 22025AV  24212.96933219  .00002419  00000-0  17005-3 0  9999,2 51999  53.2168 133.0029 0001628  84.6061 275.5117 15.08841307132348,6917.876,95.437,540.868,538.615,0.0
51999.0,STARLINK-3667,PAYLOAD,2024-07-31 02:26:36,15.08852886,0.0001485,53.2166,132.4055,79.4165,280.6994,9.5352e-05,1.23e-05,0.0,0 STARLINK-3667,1 51999U 22025AV  24213.10180633  .00001230  00000-0  95352-4 0  9992,2 51999  53.2166 132.4055 0001485  79.4165 280.6994 15.08852886133879,6917.841,95.437,540.733,538.679,0.0
51999.0,STARLINK-3667,PAYLOAD,2024-07-31 11:58:54,15.08861422,0.0001549,53.2176,130.6242,81.8844,278.2324,0.0001723,2.457e-05,0.0,0 STARLINK-3667,1 51999U 22025AV  24213.49923631  .00002457  00000-0  17230-3 0  9997,2 51999  53.2176 130.6242 0001549  81.8844 278.2324 15.08861422133933,6917.815,95.436,540.751,538.608,0.0
51999.0,STARLINK-3667,PAYLOAD,2024-07-31 18:20:28,15.08817618,0.0001245,53.2175,129.4316,99.427,260.6862,-0.00022635,-3.886e-05,0.0,0 STARLINK-3667,1 51999U 22025AV  24213.76421979 -.00003886  00000-0 -22635-3 0  9999,2 51999  53.2175 129.4316 0001245  99.4270 260.6862 15.08817618133975,6917.949,95.439,540.675,538.953,0.0
51999.0,STARLINK-3667,PAYLOAD,2024-07-31 23:06:37,15.08828323,0.0001618,53.2165,128.5439,86.59,273.5277,-5.2928e-05,-1.13e-05,0.0,0 STARLINK-3667,1 51999U 22025AV  24213.96293857 -.00001130  00000-0 -52928-4 0  9992,2 51999  53.2165 128.5439 0001618  86.5900 273.5277 15.08828323132495,6917.916,95.438,540.9,538.662,0.0
51999.0,STARLINK-3667,PAYLOAD,2024-08-01 00:42:00,15.08832391,0.0001675,53.2162,128.2455,84.8914,275.2269,-5.2047e-05,-1.116e-05,0.0,0 STARLINK-3667,1 51999U 22025AV  24214.02917658 -.00001116  00000-0 -52047-4 0  9998,2 51999  53.2162 128.2455 0001675  84.8914 275.2269 15.08832391134016,6917.904,95.438,540.927,538.61,0.0
51999.0,STARLINK-3667,PAYLOAD,2024-08-01 21:22:00,15.08850393,0.0001447,53.2156,124.3771,100.3309,259.7846,0.00026631,3.954e-05,0.0,0 STARLINK-3667,1 51999U 22025AV  24214.89028668  .00003954  00000-0  26631-3 0  9996,2 51999  53.2156 124.3771 0001447 100.3309 259.7846 15.08850393134140,6917.849,95.437,540.715,538.713,0.0
51999.0,STARLINK-3667,PAYLOAD,2024-08-01 22:57:23,15.08851046,0.0001438,53.2152,124.0793,104.2481,255.8671,0.00035804,5.417e-05,0.0,0 STARLINK-3667,1 51999U 22025AV  24214.95652717  .00005417  00000-0  35804-3 0  9999,2 51999  53.2152 124.0793 0001438 104.2481 255.8671 15.08851046132643,6917.847,95.437,540.706,538.717,0.0
51999.0,STARLINK-3667,PAYLOAD,2024-08-02 21:12:48,15.08832377,0.0001236,53.2151,119.9153,91.5389,268.5745,-5.8574e-05,-1.22e-05,0.0,0 STARLINK-3667,1 51999U 22025AV  24215.88389380 -.00001220  00000-0 -58574-4 0  9995,2 51999  53.2151 119.9153 0001236  91.5389 268.5745 15.08832377134298,6917.904,95.438,540.624,538.914,0.0
51999.0,STARLINK-3667,PAYLOAD,2024-08-02 22:48:11,15.08835979,0.000128,53.2155,119.6192,79.6629,280.4507,9.5477e-05,1.232e-05,0.0,0 STARLINK-3667,1 51999U 22025AV  24215.95013427  .00001232  00000-0  95477-4 0  9993,2 51999  53.2155 119.6192 0001280  79.6629 280.4507 15.08835979132798,6917.893,95.438,540.643,538.872,0.0
51999.0,STARLINK-3667,PAYLOAD,2024-08-03 03:34:21,15.08832564,0.0001334,53.2167,118.7264,82.1459,277.9684,0.00033471,5.042e-05,0.0,0 STARLINK-3667,1 51999U 22025AV  24216.14885613  .00005042  00000-0  33471-3 0  9997,2 51999  53.2167 118.7264 0001334  82.1459 277.9684 15.08832564132829,6917.903,95.438,540.691,538.845,0.0
51999.0,STARLINK-3667,PAYLOAD,2024-08-03 22:38:59,15.08842064,0.0001312,53.2161,115.158,74.8335,285.2802,0.00067047,0.00010399,0.0,0 STARLINK-3667,1 51999U 22025AV  24216.94374023  .00010399  00000-0  67047-3 0  9990,2 51999  53.2161 115.1580 0001312  74.8335 285.2802 15.08842064132945,6917.874,95.437,540.647,538.831,0.0
51999.0,STARLINK-3667,PAYLOAD,2024-08-04 00:14:22,15.08844913,0.0001347,53.2163,114.8607,76.5604,283.5538,0.00070678,0.0001098,0.0,0 STARLINK-3667,1 51999U 22025AV  24217.00997970  .00010980  00000-0  70678-3 0  9990,2 51999  53.2163 114.8607 0001347  76.5604 283.5538 15.08844913134460,6917.865,95.437,540.662,538.799,0.0
51999.0,STARLINK-3667,PAYLOAD,2024-08-04 09:46:40,15.08870655,0.0001256,53.2162,113.077,77.6823,282.4309,0.001112,0.00017469,0.0,0 STARLINK-3667,1 51999U 22025AV  24217.40741108  .00017469  00000-0  11120-2 0  9999,2 51999  53.2162 113.0770 0001256  77.6823 282.4309 15.08870655134528,6917.787,95.436,540.521,538.783,0.0
51999.0,STARLINK-3667,PAYLOAD,2024-08-04 20:54:22,15.08847195,0.0001514,53.2161,110.9951,76.9238,283.1923,0.00042428,6.472e-05,0.0,0 STARLINK-3667,1 51999U 22025AV  24217.87109718  .00006472  00000-0  42428-3 0  9993,2 51999  53.2161 110.9951 0001514  76.9238 283.1923 15.08847195134593,6917.858,95.437,540.771,538.676,0.0
51999.0,STARLINK-3667,PAYLOAD,2024-08-04 22:29:45,15.08851221,0.0001843,53.2162,110.6978,76.668,283.4518,0.00061079,9.449e-05,0.0,0 STARLINK-3667,1 51999U 22025AV  24217.93733720  .00009449  00000-0  61079-3 0  9996,2 51999  53.2162 110.6978 0001843  76.6680 283.4518 15.08851221133095,6917.846,95.437,540.986,538.436,0.0
51999.0,STARLINK-3667,PAYLOAD,2024-08-05 01:40:31,15.0887147,0.0001564,53.2159,110.1068,92.4011,267.716,0.0033785,0.00053939,0.0,0 STARLINK-3667,1 51999U 22025AV  24218.06981475  .00053939  00000-0  33785-2 0  9998,2 51999  53.2159 110.1068 0001564  92.4011 267.7160 15.08871470134626,6917.784,95.436,540.731,538.567,0.0
51999.0,STARLINK-3667,PAYLOAD,2024-08-05 20:45:10,15.08804864,0.0001219,53.2153,106.538,80.0542,280.0587,-0.00053419,-8.771e-05,0.0,0 STARLINK-3667,1 51999U 22025AV  24218.86470356 -.00008771  00000-0 -53419-3 0  9990,2 51999  53.2153 106.5380 0001219  80.0542 280.0587 15.08804864134742,6917.988,95.44,540.696,539.009,0.0
51999.0,STARLINK-3667,PAYLOAD,2024-08-05 22:20:33,15.08806346,0.0001459,53.2156,106.241,80.4142,279.7014,0.00013907,1.924e-05,0.0,0 STARLINK-3667,1 51999U 22025AV  24218.93094637  .00001924  00000-0  13907-3 0  9991,2 51999  53.2156 106.2410 0001459  80.4142 279.7014 15.08806346133243,6917.983,95.44,540.858,538.839,0.0
51999.0,STARLINK-3667,PAYLOAD,2024-08-06 03:06:43,15.08810372,0.0001534,53.2153,105.3481,76.9168,283.1995,0.0019994,0.0003165,0.0,0 STARLINK-3667,1 51999U 22025AV  24219.12967324  .00031650  00000-0  19994-2 0  9995,2 51999  53.2153 105.3481 0001534  76.9168 283.1995 15.08810372134781,6917.971,95.439,540.897,538.775,0.0
51999.0,STARLINK-3667,PAYLOAD,2024-08-06 22:11:21,15.08865369,0.0001477,53.2148,101.7795,75.3399,284.7757,0.0021129,0.00033523,0.0,0 STARLINK-3667,1 51999U 22025AV  24219.92455277  .00033523  00000-0  21129-2 0  9996,2 51999  53.2148 101.7795 0001477  75.3399 284.7757 15.08865369133393,6917.803,95.436,540.69,538.646,0.0
51999.0,STARLINK-3667,PAYLOAD,2024-08-07 01:22:07,15.08875234,0.0001489,53.215,101.1843,74.4143,285.7013,0.0021761,0.00034548,0.0,0 STARLINK-3667,1 51999U 22025AV  24220.05702996  .00034548  00000-0  21761-2 0  9995,2 51999  53.2150 101.1843 0001489  74.4143 285.7013 15.08875234133415,6917.773,95.435,540.668,538.608,0.0
51999.0,STARLINK-3667,PAYLOAD,2024-08-07 20:26:44,15.08881945,0.0001339,53.2146,97.6159,79.709,280.4053,0.0022814,0.00036249,0.0,0 STARLINK-3667,1 51999U 22025AV  24220.85190419  .00036249  00000-0  22814-2 0  9994,2 51999  53.2146  97.6159 0001339  79.7090 280.4053 15.08881945135045,6917.752,95.435,540.543,538.691,0.0
51999.0,STARLINK-3667,PAYLOAD,2024-08-08 01:12:53,15.08864888,0.0001467,53.2142,96.7244,78.9253,281.1904,0.0011681,0.00018364,0.0,0 STARLINK-3667,1 51999U 22025AV  24221.05062248  .00018364  00000-0  11681-2 0  9993,2 51999  53.2142  96.7244 0001467  78.9253 281.1904 15.08864888133565,6917.804,95.436,540.684,538.654,0.0
51999.0,STARLINK-3667,PAYLOAD,2024-08-08 20:17:31,15.08859103,0.0002322,53.2154,93.15,116.2141,243.909,0.0010502,0.00016474,0.0,0 STARLINK-3667,1 51999U 22025AV  24221.84549811  .00016474  00000-0  10502-2 0  9997,2 51999  53.2154  93.1500 0002322 116.2141 243.9090 15.08859103135194,6917.822,95.436,541.293,538.081,0.0
51999.0,STARLINK-3667,PAYLOAD,2024-08-08 21:52:53,15.08851639,0.0001813,53.2159,92.849,127.2833,232.8325,0.00041439,6.315e-05,0.0,0 STARLINK-3667,1 51999U 22025AV  24221.91173606  .00006315  00000-0  41439-3 0  9997,2 51999  53.2159  92.8490 0001813 127.2833 232.8325 15.08851639133694,6917.845,95.437,540.964,538.456,0.0
